{
"type": "FeatureCollection",
"name": "Proposed Triton Sites",
"crs": { "type": "name", "properties": { "name": "urn:ogc:def:crs:EPSG::2958" } },
"features": [
{"type":"Feature","properties":{"Id":0,"type":"ICI","COORDINATE":"079° 46' 9.12\" W 43° 37' 10.46\" N","Address":"Ironbridge Rd"},"geometry":{"type":"Point","coordinates":[599307.099600000306964,4830356.800000000745058,0.0]}},
{"type":"Feature","properties":{"Id":0,"type":"ICI","COORDINATE":"079° 47' 56.9\" W 43° 41' 58.46\" N","Address":"Regan Rd"},"geometry":{"type":"Point","coordinates":[596762.788399999961257,4839206.5395,0.0]}},
{"type":"Feature","properties":{"Id":0,"type":"ICI","COORDINATE":"079° 41' 49.64\" W 43° 41' 23.18\" N","Address":"Wilkinson Rd"},"geometry":{"type":"Point","coordinates":[605000.143299999646842,4838242.184599999338388,0.0]}},
{"type":"Feature","properties":{"Id":0,"type":"ICI","COORDINATE":"079° 41' 55.93\" W 43° 45' 35.53\" N","Address":"Sun Pac Blvd"},"geometry":{"type":"Point","coordinates":[604737.21860000025481,4846025.318399999290705,0.0]}},
{"type":"Feature","properties":{"Id":0,"type":"ICI","COORDINATE":"079° 41' 7.04\" W 43° 43' 12.6\" N","Address":"Bramwin Crt"},"geometry":{"type":"Point","coordinates":[605900.327499999664724,4841632.9847999997437,0.0]}},
{"type":"Feature","properties":{"Id":0,"type":"Res","COORDINATE":"079° 44' 42.11\" W 43° 47' 41.14\" N","Address":"Saint Hubert Dr"},"geometry":{"type":"Point","coordinates":[600962.642699999734759,4849843.254200000315905,0.0]}},
{"type":"Feature","properties":{"Id":0,"type":"Res","COORDINATE":"079° 41' 45.98\" W 43° 46' 23.98\" N","Address":"Prince Edward Blvd"},"geometry":{"type":"Point","coordinates":[604936.086500000208616,4847523.420099999755621,0.0]}},
{"type":"Feature","properties":{"Id":0,"type":"Res","COORDINATE":"079° 42' 8.95\" W 43° 42' 58.26\" N","Address":"Dartford Rd"},"geometry":{"type":"Point","coordinates":[604522.099000000394881,4841168.6096,0.0]}},
{"type":"Feature","properties":{"Id":0,"type":"Res","COORDINATE":"079° 45' 37.37\" W 43° 45' 11.39\" N","Address":"Rattlesnake Rd"},"geometry":{"type":"Point","coordinates":[599796.901300000026822,4845204.426599999889731,0.0]}},
{"type":"Feature","properties":{"Id":0,"type":"Res","COORDINATE":"079° 44' 39.33\" W 43° 42' 29.77\" N","Address":"Archdekin Dr"},"geometry":{"type":"Point","coordinates":[601170.43709999974817,4840238.03969999961555,0.0]}},
{"type":"Feature","properties":{"Id":0,"type":"Res","COORDINATE":"079° 46' 50.85\" W 43° 45' 0.52\" N","Address":"Templehill Rd"},"geometry":{"type":"Point","coordinates":[598158.527900000102818,4844844.800000000745058,0.0]}},
{"type":"Feature","properties":{"Id":0,"type":"Res","COORDINATE":"079° 49' 20.34\" W 43° 42' 24.83\" N","Address":"Beavervalley Dr"},"geometry":{"type":"Point","coordinates":[594883.669400000013411,4839993.198699999600649,0.0]}},
{"type":"Feature","properties":{"Id":0,"type":"Res","COORDINATE":"079° 46' 56.61\" W 43° 39' 3.31\" N","Address":"Lloyd Sanderson Dr"},"geometry":{"type":"Point","coordinates":[598191.527900000102818,4833822.800000000745058,0.0]}},
{"type":"Feature","properties":{"Id":0,"type":"Res","COORDINATE":"079° 45' 42.65\" W 43° 39' 18.57\" N","Address":"Torrance Woods"},"geometry":{"type":"Point","coordinates":[599841.300800000317395,4834317.800000000745058,0.0]}},
{"type":"Feature","properties":{"Id":0,"type":"Res","COORDINATE":"079° 43' 40.29\" W 43° 44' 43.07\" N","Address":"Jayfield Rd"},"geometry":{"type":"Point","coordinates":[602428.57039999961853,4844370.43129999935627,0.0]}},
{"type":"Feature","properties":{"Id":0,"type":"Flooding","COORDINATE":"079° 40' 28.67\" W 43° 46' 30.42\" N","Address":"Westbrook Ave"},"geometry":{"type":"Point","coordinates":[606661.24210000038147,4847749.710400000214577,0.0]}},
{"type":"Feature","properties":{"Id":0,"type":"Flooding","COORDINATE":"079° 44' 3.2\" W 43° 43' 40.39\" N","Address":"Melita Pl"},"geometry":{"type":"Point","coordinates":[601947.953599999658763,4842426.586200000718236,0.0]}},
{"type":"Feature","properties":{"Id":0,"type":"Flooding","COORDINATE":"079° 43' 18.32\" W 43° 39' 5.11\" N","Address":"Sparrow Crt"},"geometry":{"type":"Point","coordinates":[603080.527900000102818,4833951.800000000745058,0.0]}},
{"type":"Feature","properties":{"Id":0,"type":"Flooding","COORDINATE":"079° 45' 13.48\" W 43° 40' 43.4\" N","Address":"Elizabeth St S"},"geometry":{"type":"Point","coordinates":[600455.452399999834597,4836944.900800000876188,0.0]}},
{"type":"Feature","properties":{"Id":0,"type":"Flooding","COORDINATE":"079° 49' 0.38\" W 43° 40' 55.43\" N","Address":"Worthington Ave"},"geometry":{"type":"Point","coordinates":[595369.738900000229478,4837241.625700000673532,0.0]}},
{"type":"Feature","properties":{"Id":0,"type":"Res","COORDINATE":"079° 48' 6.61\" W 43° 39' 1.46\" N","Address":"Royal West Dr"},"geometry":{"type":"Point","coordinates":[596624.398699999786913,4833742.800000000745058,0.0]}},
{"type":"Feature","properties":{"Id":0,"type":"Res","COORDINATE":"079° 41' 40.70\" W 43° 46' 28.60\" N","Address":"PEB - Calderstone / Prince Edward Blvd"},"geometry":{"type":"Point","coordinates":[605053.663418383221142,4847671.182370479218662,0.0]}},
{"type":"Feature","properties":{"Id":0,"type":"Res","COORDINATE":"079° 41' 43.17\" W 43° 46' 26.56\" N","Address":"PEB - Dovehaven East"},"geometry":{"type":"Point","coordinates":[605001.276714007486589,4847605.588307963684201,0.0]}},
{"type":"Feature","properties":{"Id":0,"type":"Res","COORDINATE":"79°41'44.8\"W 43°46'25.0\"N","Address":"PEB - Dovehaven W"},"geometry":{"type":"Point","coordinates":[604961.646204927703366,4847556.348882367834449,0.0]}},
{"type":"Feature","properties":{"Id":0,"type":"Res","COORDINATE":"079° 46' 50.94\" W 43° 45' 0.68\" N","Address":"Temple Hill rd West"},"geometry":{"type":"Point","coordinates":[598171.9670385774225,4844863.006014602258801,0.0]}}
]
}
