{
"type": "FeatureCollection",
"name": "triton_sites",
"crs": { "type": "name", "properties": { "name": "urn:ogc:def:crs:OGC:1.3:CRS84" } },
"features": [
{"type":"Feature","properties":{"Id":0,"type":"ICI","COORDINATE":"079° 46' 9.12\" W 43° 37' 10.46\" N","Address":"Ironbridge Rd"},"geometry":{"type":"Point","coordinates":[-79.76920213579811,43.619580137968455,0.0]}},
{"type":"Feature","properties":{"Id":0,"type":"ICI","COORDINATE":"079° 47' 56.9\" W 43° 41' 58.46\" N","Address":"Regan Rd"},"geometry":{"type":"Point","coordinates":[-79.799142211881005,43.699581249234548,0.0]}},
{"type":"Feature","properties":{"Id":0,"type":"ICI","COORDINATE":"079° 41' 49.64\" W 43° 41' 23.18\" N","Address":"Wilkinson Rd"},"geometry":{"type":"Point","coordinates":[-79.697126657847889,43.689780880316,0.0]}},
{"type":"Feature","properties":{"Id":0,"type":"ICI","COORDINATE":"079° 41' 55.93\" W 43° 45' 35.53\" N","Address":"Sun Pac Blvd"},"geometry":{"type":"Point","coordinates":[-79.69887252675754,43.759878856019803,0.0]}},
{"type":"Feature","properties":{"Id":0,"type":"ICI","COORDINATE":"079° 41' 7.04\" W 43° 43' 12.6\" N","Address":"Bramwin Crt"},"geometry":{"type":"Point","coordinates":[-79.685292750886774,43.72017567716906,0.0]}},
{"type":"Feature","properties":{"Id":0,"type":"Res","COORDINATE":"079° 44' 42.11\" W 43° 47' 41.14\" N","Address":"Saint Hubert Dr"},"geometry":{"type":"Point","coordinates":[-79.745033396878867,43.794770908473133,0.0]}},
{"type":"Feature","properties":{"Id":0,"type":"Res","COORDINATE":"079° 41' 45.98\" W 43° 46' 23.98\" N","Address":"Prince Edward Blvd"},"geometry":{"type":"Point","coordinates":[-79.696109720200354,43.773335938753696,0.0]}},
{"type":"Feature","properties":{"Id":0,"type":"Res","COORDINATE":"079° 42' 8.95\" W 43° 42' 58.26\" N","Address":"Dartford Rd"},"geometry":{"type":"Point","coordinates":[-79.702488780842586,43.716191039841924,0.0]}},
{"type":"Feature","properties":{"Id":0,"type":"Res","COORDINATE":"079° 45' 37.37\" W 43° 45' 11.39\" N","Address":"Rattlesnake Rd"},"geometry":{"type":"Point","coordinates":[-79.760383232872002,43.753171490993921,0.0]}},
{"type":"Feature","properties":{"Id":0,"type":"Res","COORDINATE":"079° 44' 39.33\" W 43° 42' 29.77\" N","Address":"Archdekin Dr"},"geometry":{"type":"Point","coordinates":[-79.744260518426756,43.708278925072982,0.0]}},
{"type":"Feature","properties":{"Id":0,"type":"Res","COORDINATE":"079° 46' 50.85\" W 43° 45' 0.52\" N","Address":"Templehill Rd"},"geometry":{"type":"Point","coordinates":[-79.780795323390961,43.750153070128448,0.0]}},
{"type":"Feature","properties":{"Id":0,"type":"Res","COORDINATE":"079° 49' 20.34\" W 43° 42' 24.83\" N","Address":"Beavervalley Dr"},"geometry":{"type":"Point","coordinates":[-79.822319223263833,43.706905415001856,0.0]}},
{"type":"Feature","properties":{"Id":0,"type":"Res","COORDINATE":"079° 46' 56.61\" W 43° 39' 3.31\" N","Address":"Lloyd Sanderson Dr"},"geometry":{"type":"Point","coordinates":[-79.782395410294654,43.650929260942,0.0]}},
{"type":"Feature","properties":{"Id":0,"type":"Res","COORDINATE":"079° 45' 42.65\" W 43° 39' 18.57\" N","Address":"Torrance Woods"},"geometry":{"type":"Point","coordinates":[-79.761850777564447,43.655165513862869,0.0]}},
{"type":"Feature","properties":{"Id":0,"type":"Res","COORDINATE":"079° 43' 40.29\" W 43° 44' 43.07\" N","Address":"Jayfield Rd"},"geometry":{"type":"Point","coordinates":[-79.72786102029167,43.745304955692504,0.0]}},
{"type":"Feature","properties":{"Id":0,"type":"Flooding","COORDINATE":"079° 40' 28.67\" W 43° 46' 30.42\" N","Address":"Westbrook Ave"},"geometry":{"type":"Point","coordinates":[-79.674634244112596,43.775126347379263,0.0]}},
{"type":"Feature","properties":{"Id":0,"type":"Flooding","COORDINATE":"079° 44' 3.2\" W 43° 43' 40.39\" N","Address":"Melita Pl"},"geometry":{"type":"Point","coordinates":[-79.73419745136637,43.72787326947536,0.0]}},
{"type":"Feature","properties":{"Id":0,"type":"Flooding","COORDINATE":"079° 43' 18.32\" W 43° 39' 5.11\" N","Address":"Sparrow Crt"},"geometry":{"type":"Point","coordinates":[-79.721760031835643,43.651428741882988,0.0]}},
{"type":"Feature","properties":{"Id":0,"type":"Flooding","COORDINATE":"079° 45' 13.48\" W 43° 40' 43.4\" N","Address":"Elizabeth St S"},"geometry":{"type":"Point","coordinates":[-79.753747071766483,43.678731687312762,0.0]}},
{"type":"Feature","properties":{"Id":0,"type":"Flooding","COORDINATE":"079° 49' 0.38\" W 43° 40' 55.43\" N","Address":"Worthington Ave"},"geometry":{"type":"Point","coordinates":[-79.816774638496042,43.682073248386089,0.0]}},
{"type":"Feature","properties":{"Id":0,"type":"Res","COORDINATE":"079° 48' 6.61\" W 43° 39' 1.46\" N","Address":"Royal West Dr"},"geometry":{"type":"Point","coordinates":[-79.801838442297651,43.650414413447805,0.0]}},
{"type":"Feature","properties":{"Id":0,"type":"Res","COORDINATE":"079° 41' 40.70\" W 43° 46' 28.60\" N","Address":"PEB - Calderstone / Prince Edward Blvd"},"geometry":{"type":"Point","coordinates":[-79.694620193511227,43.774649350191233,0.0]}},
{"type":"Feature","properties":{"Id":0,"type":"Res","COORDINATE":"079° 41' 43.17\" W 43° 46' 26.56\" N","Address":"PEB - Dovehaven East"},"geometry":{"type":"Point","coordinates":[-79.695283816787395,43.774066335427584,0.0]}},
{"type":"Feature","properties":{"Id":0,"type":"Res","COORDINATE":"79°41'44.8\"W 43°46'25.0\"N","Address":"PEB - Dovehaven W"},"geometry":{"type":"Point","coordinates":[-79.695785763955158,43.773628724978501,0.0]}},
{"type":"Feature","properties":{"Id":0,"type":"Res","COORDINATE":"079° 46' 50.94\" W 43° 45' 0.68\" N","Address":"Temple Hill rd West"},"geometry":{"type":"Point","coordinates":[-79.780625107955387,43.750315177640708,0.0]}}
]
}
